Skip Page Navigation
NASA Logo - Jet Propulsion Laboratory				+ View the NASA Portal
+ Center for Near-Earth Object Studies			
JPL Home	Earth	Solar System	Stars & Galaxies	Technology

JPL Solar System Dynamics
BODIES		ORBITS		EPHEMERIDES		TOOLS		PHYSICAL DATA		DISCOVERY		FAQ		SITE MAP

IMPORTANT: The SSD Announcement email list is now available. Major changes are coming in the near future, including possible hostname and/or URL changes. To be notified of such changes, subscribe to this email list.

Please visit this page for more details.


Don't show this message again
HORIZONS Web-Interface
This tool provides a web-based limited interface to JPL's HORIZONS system which can be used to generate ephemerides for solar-system bodies. Full access to HORIZONS features is available via the primary telnet interface. HORIZONS system news shows recent changes and improvements. A web-interface tutorial is available to assist new users.
Current Settings
Ephemeris Type [change] : 	ELEMENTS
Target Body [change] : 	15 Eunomia
Center [change] : 	Solar System Barycenter (SSB) [500@0]
Time Span [change] : 	Start=JD 2458850.0, Stop=JD 2464329.0, Intervals=500
Table Settings [change] : 	CSV format=YES
Display/Output [change] : 	default (formatted HTML)
Object Data Page
JPL/HORIZONS                     15 Eunomia                2020-May-15 19:57:32
Rec #:      15 (+COV) Soln.date: 2020-Feb-22_15:13:59   # obs: 2588 (1851-2020)
 
IAU76/J2000 helio. ecliptic osc. elements (au, days, deg., period=Julian yrs):
 
  EPOCH=  2450959.5 ! 1998-May-26.00 (TDB)         Residual RMS= .25544
   EC= .1868087475448172   QR= 2.150619315006905   TP= 2451077.4717521919
   OM= 293.541189026781    W=  96.86718715368363   IN= 11.74925218982585
   A= 2.644666071497654    MA= 332.9650333446645   ADIST= 3.138712827988402
   PER= 4.30095            N= .22916474            ANGMOM= .027482332
   DAN= 2.61069            DDN= 2.49661            L= 30.5538875
   B= 11.6637743           MOID= 1.19182003        TP= 1998-Sep-20.9717521919
 
Asteroid physical parameters (km, seconds, rotational period in hours):
   GM= n.a.                RAD= 115.8445           ROTPER= 6.083
   H= 5.2                  G= .230                 B-V= .839
                           ALBEDO= .248            STYP= S
 
ASTEROID comments: 
1: soln ref.= JPL#77, OCC=0
2: source=ORB
Results
*******************************************************************************
Ephemeris / WWW_USER Fri May 15 19:57:32 2020 Pasadena, USA      / Horizons    
*******************************************************************************
Target body name: 15 Eunomia                      {source: JPL#77}
Center body name: Solar System Barycenter (0)     {source: DE431}
Center-site name: BODY CENTER
*******************************************************************************
Start time      : A.D. 2020-Jan-01 12:00:00.0000 TDB
Stop  time      : A.D. 2035-Jan-01 12:00:00.0000 TDB
Step-size       : 500 steps
*******************************************************************************
Center geodetic : 0.00000000,0.00000000,0.0000000 {E-lon(deg),Lat(deg),Alt(km)}
Center cylindric: 0.00000000,0.00000000,0.0000000 {E-lon(deg),Dxy(km),Dz(km)}
Center radii    : (undefined)                                                  
Keplerian GM    : 2.9630927492415936E-04 au^3/d^2
Small perturbers: Yes                             {source: SB431-N16}
Output units    : AU-D, deg, Julian Day Number (Tp)                            
Output type     : GEOMETRIC osculating elements
Output format   : 10
Reference frame : ICRF/J2000.0                                                 
Coordinate systm: Ecliptic and Mean Equinox of Reference Epoch                 
*******************************************************************************
Initial IAU76/J2000 heliocentric ecliptic osculating elements (au, days, deg.):
  EPOCH=  2450959.5 ! 1998-May-26.00 (TDB)         Residual RMS= .25544        
   EC= .1868087475448172   QR= 2.150619315006905   TP= 2451077.4717521919      
   OM= 293.541189026781    W=  96.86718715368363   IN= 11.74925218982585       
  Equivalent ICRF heliocentric equatorial cartesian coordinates (au, au/d):
   X= 2.167232830253092E+00  Y=-4.794400942731210E-01  Z= 2.102905373916928E-01
  VX= 5.201305513573146E-04 VY= 1.086536906743999E-02 VZ= 5.935175089069706E-03
Asteroid physical parameters (km, seconds, rotational period in hours):        
   GM= n.a.                RAD= 115.8445           ROTPER= 6.083               
   H= 5.2                  G= .230                 B-V= .839                   
                           ALBEDO= .248            STYP= S                     
*******************************************************************************
            JDTDB,            Calendar Date (TDB),                     EC,                     QR,                     IN,                     OM,                      W,                     Tp,                      N,                     MA,                     TA,                      A,                     AD,                     PR,
**************************************************************************************************************************************************************************************************************************************************************************************************************************************************
$$SOE
2459463.648000000, A.D. 2021-Sep-06 03:33:07.2000,  1.840603644580106E-01,  2.169785942687418E+00,  1.172753045948753E+01,  2.929763043749132E+02,  9.915289983083970E+01,  2.458933462340071E+06,  2.274348243494377E-01,  1.205826824386013E+02,  1.366229767149949E+02,  2.659248121028137E+00,  3.148710299368855E+00,  1.582871053409504E+03,
2459474.606000000, A.D. 2021-Sep-17 02:32:38.4000,  1.839968771178052E-01,  2.169744575829580E+00,  1.172698411189595E+01,  2.929722029508953E+02,  9.910623940734557E+01,  2.458933230330006E+06,  2.274678744995177E-01,  1.231455729593838E+02,  1.386331256142514E+02,  2.658990529553185E+00,  3.148236483276790E+00,  1.582641068731503E+03,
2459485.564000000, A.D. 2021-Sep-28 01:32:09.6000,  1.839442779683891E-01,  2.169673643355617E+00,  1.172646489450197E+01,  2.929679990091026E+02,  9.905921042383640E+01,  2.458933000014301E+06,  2.275010245262703E-01,  1.257088728628452E+02,  1.406249443175777E+02,  2.658732222297402E+00,  3.147790801239188E+00,  1.582410456171065E+03,
2459496.522000000, A.D. 2021-Oct-09 00:31:40.8000,  1.839023625474026E-01,  2.169573901204786E+00,  1.172597325505947E+01,  2.929636971466784E+02,  9.901200873177216E+01,  2.458932772173707E+06,  2.275342423986178E-01,  1.282723896279606E+02,  1.425992357679026E+02,  2.658473449300733E+00,  3.147372997396680E+00,  1.582179439037203E+03,
2459507.480000000, A.D. 2021-Oct-19 23:31:12.0000,  1.838709096840793E-01,  2.169446107920625E+00,  1.172550962154682E+01,  2.929593019144187E+02,  9.896481837261592E+01,  2.458932547548281E+06,  2.275675026119004E-01,  1.308359422083377E+02,  1.445567926909049E+02,  2.658214409537639E+00,  3.146982711154652E+00,  1.581948195010750E+03,
2459518.438000000, A.D. 2021-Oct-30 22:30:43.2000,  1.838496844503429E-01,  2.169291019784737E+00,  1.172507440003508E+01,  2.929548177828220E+02,  9.891781200919701E+01,  2.458932326839087E+06,  2.276007857185830E-01,  1.333993607422383E+02,  1.464983980181451E+02,  2.657955254631953E+00,  3.146619489479168E+00,  1.581716859471311E+03,
2459529.396000000, A.D. 2021-Nov-10 21:30:14.4000,  1.838384401664085E-01,  2.169109390687755E+00,  1.172466797623324E+01,  2.929502491347629E+02,  9.887115170793386E+01,  2.458932110710805E+06,  2.276340775103247E-01,  1.359624858163878E+02,  1.484248249968902E+02,  2.657696095280472E+00,  3.146282799873189E+00,  1.581485531241128E+03,
2459540.354000000, A.D. 2021-Nov-21 20:29:45.6000,  1.838369215993740E-01,  2.168901965931077E+00,  1.172429072163283E+01,  2.929456003111263E+02,  9.882498957253715E+01,  2.458931899795344E+06,  2.276673686570659E-01,  1.385251677224019E+02,  1.503368374479607E+02,  2.657437004111130E+00,  3.145972042291183E+00,  1.581254275145008E+03,
2459551.312000000, A.D. 2021-Dec-02 19:29:16.8000,  1.838448673325075E-01,  2.168669476696907E+00,  1.172394299055117E+01,  2.929408755568686E+02,  9.877946805981995E+01,  2.458931694693333E+06,  2.277006545891904E-01,  1.410872663228677E+02,  1.522351904781254E+02,  2.657178016646057E+00,  3.145686556595207E+00,  1.581023122878146E+03,
2459562.270000000, A.D. 2021-Dec-13 18:28:48.0000,  1.838620105494149E-01,  2.168412642071599E+00,  1.172362511954650E+01,  2.929360789737801E+02,  9.873472065415238E+01,  2.458931495975832E+06,  2.277339348545541E-01,  1.436486505279560E+02,  1.541206308591628E+02,  2.656919136347701E+00,  3.145425630623804E+00,  1.580792077517651E+03,
2459573.228000000, A.D. 2021-Dec-24 17:28:19.2000,  1.838880801275700E-01,  2.168132169702641E+00,  1.172333743154816E+01,  2.929312145246374E+02,  9.869087258953580E+01,  2.458931304186958E+06,  2.277672125612750E-01,  1.462091975733771E+02,  1.559938973343959E+02,  2.656660338990701E+00,  3.145188508278761E+00,  1.580561117431031E+03,
2459584.186000000, A.D. 2022-Jan-04 16:27:50.4000,  1.839228017773158E-01,  2.167828755273297E+00,  1.172308023956590E+01,  2.929262860337353E+02,  9.864804147276897E+01,  2.458931119846389E+06,  2.278004939878429E-01,  1.487687923993284E+02,  1.578557210463530E+02,  2.656401575726612E+00,  3.144974396179927E+00,  1.580330199017093E+03,
2459595.144000000, A.D. 2022-Jan-15 15:27:21.6000,  1.839658988258045E-01,  2.167503082782913E+00,  1.172285384987197E+01,  2.929212971773914E+02,  9.860633787286091E+01,  2.458930943451569E+06,  2.278337882150259E-01,  1.513273270834397E+02,  1.597068260214856E+02,  2.656142775974780E+00,  3.144782469166648E+00,  1.580099259290891E+03,
2459606.102000000, A.D. 2022-Jan-26 14:26:52.8000,  1.840170923220236E-01,  2.167155827144265E+00,  1.172265856509954E+01,  2.929162514644200E+02,  9.856586587571670E+01,  2.458930775479262E+06,  2.278671066766905E-01,  1.538847003425391E+02,  1.615479297090674E+02,  2.655883850939098E+00,  3.144611874733930E+00,  1.579868219026393E+03,
